[{"OBJECT_NAME":"IRIDIUM 33 DEB","OBJECT_ID":"1997-051AAJ","EPOCH":"2026-04-04T12:01:29.009280","MEAN_MOTION":14.59619686,"ECCENTRICITY":0.00600657,"INCLINATION":85.9588,"RA_OF_ASC_NODE":120.1868,"ARG_OF_PERICENTER":162.7033,"MEAN_ANOMALY":197.6243,"EPHEMERIS_TYPE":0,"CLASSIFICATION_TYPE":"U","NORAD_CAT_ID":39777,"ELEMENT_SET_NO":999,"REV_AT_EPOCH":61828,"BSTAR":0.0036254428,"MEAN_MOTION_DOT":0.00017739,"MEAN_MOTION_DDOT":0},{"OBJECT_NAME":"IRIDIUM 33 DEB","OBJECT_ID":"1997-051AAK","EPOCH":"2026-04-04T10:35:04.396704","MEAN_MOTION":14.5533558,"ECCENTRICITY":0.00084477,"INCLINATION":86.3822,"RA_OF_ASC_NODE":354.2751,"ARG_OF_PERICENTER":21.9444,"MEAN_ANOMALY":338.2124,"EPHEMERIS_TYPE":0,"CLASSIFICATION_TYPE":"U","NORAD_CAT_ID":39778,"ELEMENT_SET_NO":999,"REV_AT_EPOCH":62331,"BSTAR":0.0015003475,"MEAN_MOTION_DOT":6.53e-5,"MEAN_MOTION_DDOT":0},{"OBJECT_NAME":"IRIDIUM 33 DEB","OBJECT_ID":"1997-051AAN","EPOCH":"2026-04-03T02:22:51.785472","MEAN_MOTION":14.23562901,"ECCENTRICITY":0.01685441,"INCLINATION":86.3754,"RA_OF_ASC_NODE":212.0263,"ARG_OF_PERICENTER":273.7467,"MEAN_ANOMALY":268.6523,"EPHEMERIS_TYPE":0,"CLASSIFICATION_TYPE":"U","NORAD_CAT_ID":39781,"ELEMENT_SET_NO":999,"REV_AT_EPOCH":9689,"BSTAR":0.010259002,"MEAN_MOTION_DOT":0.00027129,"MEAN_MOTION_DDOT":0},{"OBJECT_NAME":"IRIDIUM 33 DEB","OBJECT_ID":"1997-051ABJ","EPOCH":"2026-04-04T01:09:03.169440","MEAN_MOTION":15.06857203,"ECCENTRICITY":0.00074056,"INCLINATION":86.3495,"RA_OF_ASC_NODE":308.501,"ARG_OF_PERICENTER":14.9857,"MEAN_ANOMALY":137.9106,"EPHEMERIS_TYPE":0,"CLASSIFICATION_TYPE":"U","NORAD_CAT_ID":40996,"ELEMENT_SET_NO":999,"REV_AT_EPOCH":64173,"BSTAR":0.0050399653,"MEAN_MOTION_DOT":0.00075905,"MEAN_MOTION_DDOT":0},{"OBJECT_NAME":"IRIDIUM 33 DEB","OBJECT_ID":"1997-051ABL","EPOCH":"2026-03-20T13:18:48.252960","MEAN_MOTION":14.45504117,"ECCENTRICITY":0.00095854,"INCLINATION":86.388,"RA_OF_ASC_NODE":11.8556,"ARG_OF_PERICENTER":105.6376,"MEAN_ANOMALY":20.7682,"EPHEMERIS_TYPE":0,"CLASSIFICATION_TYPE":"U","NORAD_CAT_ID":40998,"ELEMENT_SET_NO":999,"REV_AT_EPOCH":8094,"BSTAR":0.0004685059,"MEAN_MOTION_DOT":1.671e-5,"MEAN_MOTION_DDOT":0},{"OBJECT_NAME":"IRIDIUM 33 DEB","OBJECT_ID":"1997-051ABN","EPOCH":"2026-04-02T09:41:59.381664","MEAN_MOTION":14.38045517,"ECCENTRICITY":0.01913803,"INCLINATION":86.2821,"RA_OF_ASC_NODE":146.0705,"ARG_OF_PERICENTER":270.4412,"MEAN_ANOMALY":103.8513,"EPHEMERIS_TYPE":0,"CLASSIFICATION_TYPE":"U","NORAD_CAT_ID":46435,"ELEMENT_SET_NO":999,"REV_AT_EPOCH":9504,"BSTAR":0.0054996009,"MEAN_MOTION_DOT":0.00020647,"MEAN_MOTION_DDOT":0},{"OBJECT_NAME":"IRIDIUM 33 DEB","OBJECT_ID":"1997-051ABR","EPOCH":"2026-03-25T09:43:38.646624","MEAN_MOTION":14.42665972,"ECCENTRICITY":0.00403907,"INCLINATION":86.2626,"RA_OF_ASC_NODE":317.7811,"ARG_OF_PERICENTER":356.4504,"MEAN_ANOMALY":184.0485,"EPHEMERIS_TYPE":0,"CLASSIFICATION_TYPE":"U","NORAD_CAT_ID":46734,"ELEMENT_SET_NO":999,"REV_AT_EPOCH":64490,"BSTAR":0.00073413942,"MEAN_MOTION_DOT":2.483e-5,"MEAN_MOTION_DDOT":0},{"OBJECT_NAME":"IRIDIUM 33 DEB","OBJECT_ID":"1997-051ABX","EPOCH":"2026-04-03T12:46:06.255840","MEAN_MOTION":14.61214732,"ECCENTRICITY":0.00174429,"INCLINATION":86.3292,"RA_OF_ASC_NODE":291.0853,"ARG_OF_PERICENTER":310.3961,"MEAN_ANOMALY":78.8466,"EPHEMERIS_TYPE":0,"CLASSIFICATION_TYPE":"U","NORAD_CAT_ID":46965,"ELEMENT_SET_NO":999,"REV_AT_EPOCH":63900,"BSTAR":0.0010446062,"MEAN_MOTION_DOT":5.178e-5,"MEAN_MOTION_DDOT":0},{"OBJECT_NAME":"IRIDIUM 33 DEB","OBJECT_ID":"1997-051ACD","EPOCH":"2026-04-03T06:06:51.068736","MEAN_MOTION":15.06035361,"ECCENTRICITY":0.00054827,"INCLINATION":86.3244,"RA_OF_ASC_NODE":280.2657,"ARG_OF_PERICENTER":258.8751,"MEAN_ANOMALY":226.8335,"EPHEMERIS_TYPE":0,"CLASSIFICATION_TYPE":"U","NORAD_CAT_ID":46971,"ELEMENT_SET_NO":999,"REV_AT_EPOCH":65904,"BSTAR":0.0039691559,"MEAN_MOTION_DOT":0.00058321,"MEAN_MOTION_DDOT":0},{"OBJECT_NAME":"IRIDIUM 33 DEB","OBJECT_ID":"1997-051ACE","EPOCH":"2026-03-21T00:51:06.959808","MEAN_MOTION":14.51201793,"ECCENTRICITY":0.00106128,"INCLINATION":86.3927,"RA_OF_ASC_NODE":357.0817,"ARG_OF_PERICENTER":126.491,"MEAN_ANOMALY":247.8233,"EPHEMERIS_TYPE":0,"CLASSIFICATION_TYPE":"U","NORAD_CAT_ID":46972,"ELEMENT_SET_NO":999,"REV_AT_EPOCH":62998,"BSTAR":0.00045931459,"MEAN_MOTION_DOT":1.845e-5,"MEAN_MOTION_DDOT":0},{"OBJECT_NAME":"IRIDIUM 33 DEB","OBJECT_ID":"1997-051ACG","EPOCH":"2026-04-05T03:40:19.397856","MEAN_MOTION":14.47113592,"ECCENTRICITY":0.00882951,"INCLINATION":86.2989,"RA_OF_ASC_NODE":55.6277,"ARG_OF_PERICENTER":167.5723,"MEAN_ANOMALY":192.7688,"EPHEMERIS_TYPE":0,"CLASSIFICATION_TYPE":"U","NORAD_CAT_ID":46974,"ELEMENT_SET_NO":999,"REV_AT_EPOCH":59147,"BSTAR":0.0029517472,"MEAN_MOTION_DOT":0.00011326,"MEAN_MOTION_DDOT":0}]
